start=new Date('2021-10-22T00:00:00.000Z').valueOf();
sats=[{"MEAN_MOTION_DDOT":"0.0000000000000","GP_ID":"187809484","MEAN_ANOMALY":"294.8969","SITE":"AFETR","FILE":"3176553","OBJECT_ID":"2020-006AG","BSTAR":"-0.00010115000000","INCLINATION":"53.0549","MEAN_ELEMENT_THEORY":"SGP4","REF_FRAME":"TEME","OBJECT_TYPE":"PAYLOAD","COUNTRY_CODE":"US","NORAD_CAT_ID":"45074","CLASSIFICATION_TYPE":"U","ELEMENT_SET_NO":"999","PERIAPSIS":"546.023","EPOCH":"2021-10-21T14:00:07.760160","LAUNCH_DATE":"2020-01-29","SEMIMAJOR_AXIS":"6925.365","TLE_LINE2":"2 45074  53.0549 249.7858 0001743  65.2202 294.8969 15.06394485 95560","MEAN_MOTION":"15.06394485","ARG_OF_PERICENTER":"65.2202","DECAY_DATE":null,"TLE_LINE1":"1 45074U 20006AG  21294.58342315 -.00001788  00000-0 -10115-3 0  9994","REV_AT_EPOCH":"9556","MEAN_MOTION_DOT":"-0.00001788","APOAPSIS":"548.438","EPHEMERIS_TYPE":"0","TIME_SYSTEM":"UTC","RA_OF_ASC_NODE":"249.7858","OBJECT_NAME":"STARLINK-1172","PERIOD":"95.592","CENTER_NAME":"EARTH","ECCENTRICITY":"0.00017430","RCS_SIZE":"LARGE"},{"INCLINATION":"53.0552","BSTAR":"0.00001884600000","MEAN_ELEMENT_THEORY":"SGP4","REF_FRAME":"TEME","OBJECT_TYPE":"PAYLOAD","NORAD_CAT_ID":"45075","COUNTRY_CODE":"US","CLASSIFICATION_TYPE":"U","MEAN_MOTION_DDOT":"0.0000000000000","GP_ID":"187838380","MEAN_ANOMALY":"291.0305","FILE":"3176920","SITE":"AFETR","OBJECT_ID":"2020-006AH","OBJECT_NAME":"STARLINK-1174","PERIOD":"95.592","CENTER_NAME":"EARTH","ECCENTRICITY":"0.00016580","RCS_SIZE":"LARGE","PERIAPSIS":"546.042","ELEMENT_SET_NO":"999","LAUNCH_DATE":"2020-01-29","SEMIMAJOR_AXIS":"6925.326","EPOCH":"2021-10-21T14:47:52.943136","ARG_OF_PERICENTER":"69.0861","TLE_LINE2":"2 45075  53.0552 249.6366 0001658  69.0861 291.0305 15.06407472 95571","MEAN_MOTION":"15.06407472","DECAY_DATE":null,"TLE_LINE1":"1 45075U 20006AH  21294.61658499 -.00000001  00000-0  18846-4 0  9998","REV_AT_EPOCH":"9557","MEAN_MOTION_DOT":"-0.00000001","APOAPSIS":"548.339","RA_OF_ASC_NODE":"249.6366","EPHEMERIS_TYPE":"0","TIME_SYSTEM":"UTC"},{"ECCENTRICITY":"0.00016590","RCS_SIZE":"LARGE","OBJECT_NAME":"STARLINK-1180","PERIOD":"95.593","CENTER_NAME":"EARTH","TLE_LINE1":"1 45076U 20006AJ  21294.35857649  .00000066  00000-0  23306-4 0  9995","REV_AT_EPOCH":"9553","MEAN_MOTION_DOT":"0.00000066","APOAPSIS":"548.399","EPHEMERIS_TYPE":"0","TIME_SYSTEM":"UTC","RA_OF_ASC_NODE":"250.7866","PERIAPSIS":"546.101","ELEMENT_SET_NO":"999","LAUNCH_DATE":"2020-01-29","SEMIMAJOR_AXIS":"6925.385","EPOCH":"2021-10-21T08:36:21.008736","ARG_OF_PERICENTER":"68.9431","TLE_LINE2":"2 45076  53.0542 250.7866 0001659  68.9431 291.1736 15.06388199 95530","MEAN_MOTION":"15.06388199","DECAY_DATE":null,"OBJECT_TYPE":"PAYLOAD","COUNTRY_CODE":"US","NORAD_CAT_ID":"45076","CLASSIFICATION_TYPE":"U","BSTAR":"0.00002330600000","INCLINATION":"53.0542","MEAN_ELEMENT_THEORY":"SGP4","REF_FRAME":"TEME","MEAN_ANOMALY":"291.1736","SITE":"AFETR","FILE":"3176553","OBJECT_ID":"2020-006AJ","MEAN_MOTION_DDOT":"0.0000000000000","GP_ID":"187808484"},{"GP_ID":"187809730","MEAN_MOTION_DDOT":"0.0000000000000","OBJECT_ID":"2020-006AK","MEAN_ANOMALY":"301.7204","SITE":"AFETR","FILE":"3176553","MEAN_ELEMENT_THEORY":"SGP4","REF_FRAME":"TEME","BSTAR":"0.00015807000000","INCLINATION":"53.0546","CLASSIFICATION_TYPE":"U","OBJECT_TYPE":"PAYLOAD","COUNTRY_CODE":"US","NORAD_CAT_ID":"45077","ARG_OF_PERICENTER":"58.3942","TLE_LINE2":"2 45077  53.0546 231.9881 0001460  58.3942 301.7204 15.39875341 95795","MEAN_MOTION":"15.39875341","DECAY_DATE":null,"ELEMENT_SET_NO":"999","PERIAPSIS":"445.483","SEMIMAJOR_AXIS":"6824.615","LAUNCH_DATE":"2020-01-29","EPOCH":"2021-10-21T07:33:58.578048","EPHEMERIS_TYPE":"0","TIME_SYSTEM":"UTC","RA_OF_ASC_NODE":"231.9881","REV_AT_EPOCH":"9579","TLE_LINE1":"1 45077U 20006AK  21294.31526132  .00005981  00000-0  15807-3 0  9999","APOAPSIS":"447.476","MEAN_MOTION_DOT":"0.00005981","PERIOD":"93.514","CENTER_NAME":"EARTH","OBJECT_NAME":"STARLINK-1182","RCS_SIZE":"LARGE","ECCENTRICITY":"0.00014600"},{"INCLINATION":"53.0560","BSTAR":"0.00002527000000","MEAN_ELEMENT_THEORY":"SGP4","REF_FRAME":"TEME","OBJECT_TYPE":"PAYLOAD","NORAD_CAT_ID":"45078","COUNTRY_CODE":"US","CLASSIFICATION_TYPE":"U","MEAN_MOTION_DDOT":"0.0000000000000","GP_ID":"187809984","MEAN_ANOMALY":"291.6897","FILE":"3176553","SITE":"AFETR","OBJECT_ID":"2020-006AL","OBJECT_NAME":"STARLINK-1177","PERIOD":"95.592","CENTER_NAME":"EARTH","ECCENTRICITY":"0.00017760","RCS_SIZE":"LARGE","PERIAPSIS":"545.975","ELEMENT_SET_NO":"999","EPOCH":"2021-10-21T13:49:29.581248","LAUNCH_DATE":"2020-01-29","SEMIMAJOR_AXIS":"6925.340","MEAN_MOTION":"15.06402865","TLE_LINE2":"2 45078  53.0560 249.8039 0001776  68.4281 291.6897 15.06402865 95553","ARG_OF_PERICENTER":"68.4281","DECAY_DATE":null,"REV_AT_EPOCH":"9555","TLE_LINE1":"1 45078U 20006AL  21294.57603682  .00000095  00000-0  25270-4 0  9991","MEAN_MOTION_DOT":"0.00000095","APOAPSIS":"548.435","RA_OF_ASC_NODE":"249.8039","TIME_SYSTEM":"UTC","EPHEMERIS_TYPE":"0"},{"TLE_LINE2":"2 45079  53.0535 249.6193 0001387  74.9395 285.1748 15.06398816 95565","ARG_OF_PERICENTER":"74.9395","MEAN_MOTION":"15.06398816","DECAY_DATE":null,"ELEMENT_SET_NO":"999","PERIAPSIS":"546.257","SEMIMAJOR_AXIS":"6925.352","LAUNCH_DATE":"2020-01-29","EPOCH":"2021-10-21T14:53:11.099904","TIME_SYSTEM":"UTC","EPHEMERIS_TYPE":"0","RA_OF_ASC_NODE":"249.6193","REV_AT_EPOCH":"9556","TLE_LINE1":"1 45079U 20006AM  21294.62026736 -.00000382  00000-0 -67670-5 0  9999","APOAPSIS":"548.178","MEAN_MOTION_DOT":"-0.00000382","PERIOD":"95.592","CENTER_NAME":"EARTH","OBJECT_NAME":"STARLINK-1149","RCS_SIZE":"LARGE","ECCENTRICITY":"0.00013870","GP_ID":"187837881","MEAN_MOTION_DDOT":"0.0000000000000","OBJECT_ID":"2020-006AM","MEAN_ANOMALY":"285.1748","SITE":"AFETR","FILE":"3176920","MEAN_ELEMENT_THEORY":"SGP4","REF_FRAME":"TEME","BSTAR":"-0.00000676700000","INCLINATION":"53.0535","CLASSIFICATION_TYPE":"U","OBJECT_TYPE":"PAYLOAD","COUNTRY_CODE":"US","NORAD_CAT_ID":"45079"},{"INCLINATION":"53.0540","BSTAR":"-0.00010035000000","REF_FRAME":"TEME","MEAN_ELEMENT_THEORY":"SGP4","NORAD_CAT_ID":"45080","COUNTRY_CODE":"US","OBJECT_TYPE":"PAYLOAD","CLASSIFICATION_TYPE":"U","MEAN_MOTION_DDOT":"0.0000000000000","GP_ID":"187808984","FILE":"3176553","SITE":"AFETR","MEAN_ANOMALY":"290.1707","OBJECT_ID":"2020-006AN","OBJECT_NAME":"STARLINK-1153","CENTER_NAME":"EARTH","PERIOD":"95.593","ECCENTRICITY":"0.00015830","RCS_SIZE":"LARGE","LAUNCH_DATE":"2020-01-29","SEMIMAJOR_AXIS":"6925.366","EPOCH":"2021-10-21T07:06:06.693984","PERIAPSIS":"546.135","ELEMENT_SET_NO":"999","DECAY_DATE":null,"TLE_LINE2":"2 45080  53.0540 251.0679 0001583  69.9453 290.1707 15.06394284 95528","ARG_OF_PERICENTER":"69.9453","MEAN_MOTION":"15.06394284","APOAPSIS":"548.327","MEAN_MOTION_DOT":"-0.00001776","REV_AT_EPOCH":"9552","TLE_LINE1":"1 45080U 20006AN  21294.29591081 -.00001776  00000-0 -10035-3 0  9993","RA_OF_ASC_NODE":"251.0679","TIME_SYSTEM":"UTC","EPHEMERIS_TYPE":"0"},{"EPHEMERIS_TYPE":"0","TIME_SYSTEM":"UTC","RA_OF_ASC_NODE":"249.6842","MEAN_MOTION_DOT":"-0.00002075","APOAPSIS":"548.408","REV_AT_EPOCH":"9557","TLE_LINE1":"1 45081U 20006AP  21294.60553758 -.00002075  00000-0 -12048-3 0  9997","DECAY_DATE":null,"ARG_OF_PERICENTER":"67.7599","TLE_LINE2":"2 45081  53.0549 249.6842 0001700  67.7599 292.3571 15.06394483 95570","MEAN_MOTION":"15.06394483","EPOCH":"2021-10-21T14:31:58.446912","LAUNCH_DATE":"2020-01-29","SEMIMAJOR_AXIS":"6925.365","ELEMENT_SET_NO":"999","PERIAPSIS":"546.053","RCS_SIZE":"LARGE","ECCENTRICITY":"0.00017000","CENTER_NAME":"EARTH","PERIOD":"95.592","OBJECT_NAME":"STARLINK-1151","OBJECT_ID":"2020-006AP","SITE":"AFETR","FILE":"3176920","MEAN_ANOMALY":"292.3571","GP_ID":"187839377","MEAN_MOTION_DDOT":"0.0000000000000","CLASSIFICATION_TYPE":"U","COUNTRY_CODE":"US","NORAD_CAT_ID":"45081","OBJECT_TYPE":"PAYLOAD","REF_FRAME":"TEME","MEAN_ELEMENT_THEORY":"SGP4","BSTAR":"-0.00012048000000","INCLINATION":"53.0549"},{"SITE":"AFETR","FILE":"3176920","MEAN_ANOMALY":"287.0249","OBJECT_ID":"2020-006AQ","MEAN_MOTION_DDOT":"0.0000000000000","GP_ID":"187837631","COUNTRY_CODE":"US","NORAD_CAT_ID":"45082","OBJECT_TYPE":"PAYLOAD","CLASSIFICATION_TYPE":"U","BSTAR":"0.00002322400000","INCLINATION":"53.0528","REF_FRAME":"TEME","MEAN_ELEMENT_THEORY":"SGP4","MEAN_MOTION_DOT":"0.00000064","APOAPSIS":"548.271","TLE_LINE1":"1 45082U 20006AQ  21294.59446459  .00000064  00000-0  23224-4 0  9998","REV_AT_EPOCH":"9556","EPHEMERIS_TYPE":"0","TIME_SYSTEM":"UTC","RA_OF_ASC_NODE":"249.7319","LAUNCH_DATE":"2020-01-29","EPOCH":"2021-10-21T14:16:01.740576","SEMIMAJOR_AXIS":"6925.360","PERIAPSIS":"546.179","ELEMENT_SET_NO":"999","DECAY_DATE":null,"MEAN_MOTION":"15.06396304","TLE_LINE2":"2 45082  53.0528 249.7319 0001510  73.0906 287.0249 15.06396304 95565","ARG_OF_PERICENTER":"73.0906","ECCENTRICITY":"0.00015100","RCS_SIZE":"LARGE","OBJECT_NAME":"STARLINK-1160","CENTER_NAME":"EARTH","PERIOD":"95.592"},{"CENTER_NAME":"EARTH","PERIOD":"95.592","OBJECT_NAME":"STARLINK-1190","RCS_SIZE":"LARGE","ECCENTRICITY":"0.00015490","DECAY_DATE":null,"MEAN_MOTION":"15.06402635","TLE_LINE2":"2 45083  53.0548 269.5916 0001549  69.7174 290.3982 15.06402635 95298","ARG_OF_PERICENTER":"69.7174","EPOCH":"2021-10-21T15:01:10.274304","LAUNCH_DATE":"2020-01-29","SEMIMAJOR_AXIS":"6925.340","ELEMENT_SET_NO":"999","PERIAPSIS":"546.133","RA_OF_ASC_NODE":"269.5916","EPHEMERIS_TYPE":"0","TIME_SYSTEM":"UTC","MEAN_MOTION_DOT":"-0.00000564","APOAPSIS":"548.278","TLE_LINE1":"1 45083U 20006AR  21294.62581336 -.00000564  00000-0 -18984-4 0  9991","REV_AT_EPOCH":"9529","REF_FRAME":"TEME","MEAN_ELEMENT_THEORY":"SGP4","INCLINATION":"53.0548","BSTAR":"-0.00001898400000","CLASSIFICATION_TYPE":"U","NORAD_CAT_ID":"45083","COUNTRY_CODE":"US","OBJECT_TYPE":"PAYLOAD","GP_ID":"187838381","MEAN_MOTION_DDOT":"0.0000000000000","OBJECT_ID":"2020-006AR","FILE":"3176920","SITE":"AFETR","MEAN_ANOMALY":"290.3982"}];
